WNISAT 1R               
1 42835U 17042L   26068.86192839  .00004802  00000+0  37840-3 0  9992
2 42835  97.4515 228.7079 0013301 131.3338 228.9034 15.01153186471607
STARLINK-36106          
1 67018U 25293R   26068.50718031  .00003843  00000+0  32958-3 0  9997
2 67018  70.0003  94.7881 0003263 267.9100  92.1685 14.98345506 14865
